STATION,mode,N,NODENAME,X,Y,GEOGKEY,TAZID,STATION_OBS_ID,STATION_OBS,LAT,LON
1940 W. North Temple,LRT,15101.0,1940 W. North Temple,420317.0,4513804.0,420317_4513804,1016.0,SLC_1_704_00_TX198003,1940 W NORTH TEMPLE STATION,40.77153,-111.946607
1940 W. North Temple,LRT,15101.0,1940 W. North Temple,420317.0,4513804.0,420317_4513804,1016.0,SLC_1_704_01_TX101999,1940 W NORTH TEMPLE STATION,40.771536,-111.945736
2230 North,,,,,,,,SLC_1_830X_01_830266,2230 NORTH STATION,40.262672,-111.667023
2230 North,,,,,,,,SLC_1_830X_00_830266,2230 NORTH STATION,40.262672,-111.667023
2700 W. Sugar Factory Rd,LRT,,,,,,,SLC_1_703_01_TX101724,2700 W. SUGAR FACTORY RD STATION,40.599207,-111.956458
2700 W. Sugar Factory Rd,LRT,,,,,,,SLC_1_703_00_TX101725,2700 W. SUGAR FACTORY RD STATION,40.598976,-111.957251
300 East,LRT,15098.0,300 East,425035.5428,4508281.301,425035_4508281,1458.0,SLC_1_720_00_TX198142,300 EAST STATION,40.722324,-111.882335
300 East,LRT,15098.0,300 East,425035.5428,4508281.301,425035_4508281,1458.0,SLC_1_720_01_TX198142,300 EAST STATION,40.722324,-111.882335
300 North,,,,,,,,SLC_1_830X_00_830278,300 NORTH STATION,40.237452,-111.65869
300 North,,,,,,,,SLC_1_830X_01_830278,300 NORTH STATION,40.237452,-111.65869
400 South,,,,,,,,SLC_1_830X_01_830276,400 SOUTH STATION,40.228615,-111.658709
400 South,,,,,,,,SLC_1_830X_00_830276,400 SOUTH STATION,40.228615,-111.658709
4800 W. Old Bingham Hwy,LRT,,,,,,,SLC_1_703_01_TX101720,4800 W. OLD BINGHAM HWY STATION,40.581652,-112.003837
4800 W. Old Bingham Hwy,LRT,,,,,,,SLC_1_703_00_TX101721,4800 W. OLD BINGHAM HWY STATION,40.581307,-112.004538
500 East,LRT,15099.0,500 East,425539.2448,4508287.871,425539_4508287,1460.0,SLC_1_720_00_TX198143,500 EAST STATION,40.722306,-111.877085
500 East,LRT,15099.0,500 East,425539.2448,4508287.871,425539_4508287,1460.0,SLC_1_720_01_TX198143,500 EAST STATION,40.722306,-111.877085
5600 W. Old Bingham Hwy,LRT,15016.0,5600 W. Old Bingham Hwy,413317.1696,4491658.933,413317_4491658,1785.0,SLC_1_703_01_TX101718,5600 W. OLD BINGHAM HWY STATION,40.569441,-112.024871
5600 W. Old Bingham Hwy,LRT,15016.0,5600 W. Old Bingham Hwy,413317.1696,4491658.933,413317_4491658,1785.0,SLC_1_703_00_TX101719,5600 W. OLD BINGHAM HWY STATION,40.568807,-112.024871
700 East,LRT,15102.0,700 East,426045.1368,4508294.441,426045_4508294,1283.0,SLC_1_720_01_TX198144,700 EAST STATION,40.722798,-111.871612
700 East,LRT,15102.0,700 East,426045.1368,4508294.441,426045_4508294,1283.0,SLC_1_720_00_TX198144,700 EAST STATION,40.722798,-111.871612
900 East,LRT,15103.0,900 East,426391.1582,4508351.381,426391_4508351,1271.0,SLC_1_703_00_TX126101,900 EAST STATION,40.760671,-111.866732
900 East,LRT,15103.0,900 East,426391.1582,4508351.381,426391_4508351,1271.0,SLC_1_703_01_TX126106,900 EAST STATION,40.760661,-111.865711
900 East,LRT,15139.0,900 East,426923.0,4512528.0,426923_4512528,1161.0,SLC_1_703_00_TX126101,900 EAST STATION,40.760671,-111.866732
900 East,LRT,15139.0,900 East,426923.0,4512528.0,426923_4512528,1161.0,SLC_1_703_01_TX126106,900 EAST STATION,40.760661,-111.865711
900 South,LRT,15109.0,900 South,424322.0,4511422.0,424322_4511422,1128.0,SLC_1_704_01_TX136085,900 SOUTH STATION,40.750822,-111.896788
900 South,LRT,15109.0,900 South,424322.0,4511422.0,424322_4511422,1128.0,SLC_1_703_00_TX136084,900 SOUTH STATION,40.750058,-111.896818
900 South,LRT,15109.0,900 South,424322.0,4511422.0,424322_4511422,1128.0,SLC_1_701_00_TX136084,900 SOUTH STATION,40.750058,-111.896818
900 South,LRT,15109.0,900 South,424322.0,4511422.0,424322_4511422,1128.0,SLC_1_701_01_TX136085,900 SOUTH STATION,40.750822,-111.896788
900 South,LRT,15109.0,900 South,424322.0,4511422.0,424322_4511422,1128.0,SLC_1_703_01_TX136085,900 SOUTH STATION,40.750822,-111.896788
900 South,LRT,15109.0,900 South,424322.0,4511422.0,424322_4511422,1128.0,SLC_1_704_00_TX136084,900 SOUTH STATION,40.750058,-111.896818
Academy Square,,,,,,,,SLC_1_830X_01_830277,ACADEMY SQUARE STATION,40.241489,-111.658621
Academy Square,,,,,,,,SLC_1_830X_00_830277,ACADEMY SQUARE STATION,40.241489,-111.658621
Airport,LRT,15093.0,Airport,417036.556,4514921.869,417036_4514921,965.0,SLC_1_704_00_TX198004,AIRPORT STATION,40.78328,-111.980172
Airport,LRT,15093.0,Airport,417036.556,4514921.869,417036_4514921,965.0,SLC_1_704_01_TX198004,AIRPORT STATION,40.78328,-111.980172
American Fork,CRT,50035.0,American Fork,430424.0464,4469659.94,430424_4469659,2728.0,SLC_1_750_00_FR801160,AMERICAN FORK STATION,40.374774,-111.820649
American Fork,CRT,50035.0,American Fork,430424.0464,4469659.94,430424_4469659,2728.0,SLC_1_750_01_FR801160,AMERICAN FORK STATION,40.374774,-111.820649
Arena,LRT,15131.0,Arena,423915.0,4513527.0,423915_4513527,1028.0,SLC_1_701_00_TX125069,ARENA STATION,40.769343,-111.900051
Arena,LRT,15131.0,Arena,423915.0,4513527.0,423915_4513527,1028.0,SLC_1_704_00_TX125069,ARENA STATION,40.769343,-111.900051
Arena,LRT,15131.0,Arena,423915.0,4513527.0,423915_4513527,1028.0,SLC_1_704_01_TX125067,ARENA STATION,40.769344,-111.901146
Arena,LRT,15131.0,Arena,423915.0,4513527.0,423915_4513527,1028.0,SLC_1_701_01_TX125067,ARENA STATION,40.769344,-111.901146
Ballpark,LRT,15104.0,Ballpark,424288.0,4510488.0,424288_4510488,1191.0,SLC_1_704_01_TX125092,BALLPARK STATION,40.742583,-111.896781
Ballpark,LRT,15104.0,Ballpark,424288.0,4510488.0,424288_4510488,1191.0,SLC_1_703_00_TX125093,BALLPARK STATION,40.741876,-111.896785
Ballpark,LRT,15104.0,Ballpark,424288.0,4510488.0,424288_4510488,1191.0,SLC_1_701_00_TX125093,BALLPARK STATION,40.741876,-111.896785
Ballpark,LRT,15104.0,Ballpark,424288.0,4510488.0,424288_4510488,1191.0,SLC_1_703_01_TX125092,BALLPARK STATION,40.742583,-111.896781
Ballpark,LRT,15104.0,Ballpark,424288.0,4510488.0,424288_4510488,1191.0,SLC_1_701_01_TX125092,BALLPARK STATION,40.742583,-111.896781
Ballpark,LRT,15104.0,Ballpark,424288.0,4510488.0,424288_4510488,1191.0,SLC_1_704_00_TX125093,BALLPARK STATION,40.741876,-111.896785
Bingham Junction,LRT,15059.0,Bingham Junction,422719.0,4496674.0,422719_4496674,1798.0,SLC_1_703_01_TX101730,BINGHAM JUNCTION STATION,40.617138,-111.914906
Bingham Junction,LRT,15059.0,Bingham Junction,422719.0,4496674.0,422719_4496674,1798.0,SLC_1_703_00_TX101731,BINGHAM JUNCTION STATION,40.617073,-111.915754
Byu North Campus,,,,,,,,SLC_1_830X_00_830269,BYU NORTH CAMPUS STATION,40.256575,-111.646264
Byu North Campus,,,,,,,,SLC_1_830X_01_830270,BYU NORTH CAMPUS STATION,40.256746,-111.646221
Byu South Campus,,,,,,,,SLC_1_830X_01_830287,BYU SOUTH CAMPUS STATION,40.245789,-111.64598
Byu South Campus,,,,,,,,SLC_1_830X_00_830271,BYU SOUTH CAMPUS STATION,40.245916,-111.646102
Byu Stadium,,,,,,,,SLC_1_830X_01_830268,BYU STADIUM STATION,40.255832,-111.652051
Byu Stadium,,,,,,,,SLC_1_830X_00_830267,BYU STADIUM STATION,40.255619,-111.652029
Center Street,,,,,,,,SLC_1_830X_01_830288,CENTER STREET STATION,40.23338,-111.658756
Center Street,,,,,,,,SLC_1_830X_00_830288,CENTER STREET STATION,40.23338,-111.658756
Central Pointe,LRT,15095.0,Central Pointe,424260.0,4508556.0,424260_4508556,1444.0,SLC_1_704_00_TX125096,CENTRAL POINTE STATION,40.724091,-111.896892
Central Pointe,LRT,15095.0,Central Pointe,424260.0,4508556.0,424260_4508556,1444.0,SLC_1_704_01_TX125094,CENTRAL POINTE STATION,40.724801,-111.896861
Central Pointe,LRT,15095.0,Central Pointe,424260.0,4508556.0,424260_4508556,1444.0,SLC_1_703_00_TX125096,CENTRAL POINTE STATION,40.724091,-111.896892
Central Pointe,LRT,15095.0,Central Pointe,424260.0,4508556.0,424260_4508556,1444.0,SLC_1_703_01_TX125094,CENTRAL POINTE STATION,40.724801,-111.896861
Central Pointe,LRT,15095.0,Central Pointe,424260.0,4508556.0,424260_4508556,1444.0,SLC_1_701_01_TX125094,CENTRAL POINTE STATION,40.724801,-111.896861
Central Pointe,LRT,15095.0,Central Pointe,424260.0,4508556.0,424260_4508556,1444.0,SLC_1_720_00_TX198140,CENTRAL POINTE STATION,40.723424,-111.896794
Central Pointe,LRT,15095.0,Central Pointe,424260.0,4508556.0,424260_4508556,1444.0,SLC_1_701_00_TX125096,CENTRAL POINTE STATION,40.724091,-111.896892
Central Pointe,LRT,15095.0,Central Pointe,424260.0,4508556.0,424260_4508556,1444.0,SLC_1_720_01_TX198140,CENTRAL POINTE STATION,40.723424,-111.896794
City Center,LRT,15136.0,City Center,424769.0,4513356.0,424769_4513356,1034.0,SLC_1_701_00_TX128002,CITY CENTER STATION,40.767452,-111.891101
City Center,LRT,15136.0,City Center,424769.0,4513356.0,424769_4513356,1034.0,SLC_1_704_01_TX128001,CITY CENTER STATION,40.768217,-111.891081
City Center,LRT,15136.0,City Center,424769.0,4513356.0,424769_4513356,1034.0,SLC_1_701_01_TX128001,CITY CENTER STATION,40.768217,-111.891081
City Center,LRT,15136.0,City Center,424769.0,4513356.0,424769_4513356,1034.0,SLC_1_704_00_TX128002,CITY CENTER STATION,40.767452,-111.891101
Clearfield,CRT,10036.0,Clearfield,414829.2683,4549753.942,414829_4549753,663.0,SLC_1_750_01_FR301081,CLEARFIELD STATION,41.094769,-112.013807
Clearfield,CRT,10036.0,Clearfield,414829.2683,4549753.942,414829_4549753,663.0,SLC_1_750_00_FR301081,CLEARFIELD STATION,41.094769,-112.013807
Courthouse,LRT,15127.0,Courthouse,424766.0,4512379.0,424766_4512379,1135.0,SLC_1_701_00_TX125091,COURTHOUSE STATION,40.758762,-111.891096
Courthouse,LRT,15127.0,Courthouse,424766.0,4512379.0,424766_4512379,1135.0,SLC_1_704_01_TX125085,COURTHOUSE STATION,40.759536,-111.891071
Courthouse,LRT,15127.0,Courthouse,424766.0,4512379.0,424766_4512379,1135.0,SLC_1_704_00_TX125091,COURTHOUSE STATION,40.758762,-111.891096
Courthouse,LRT,15127.0,Courthouse,424766.0,4512379.0,424766_4512379,1135.0,SLC_1_701_01_TX125085,COURTHOUSE STATION,40.759536,-111.891071
Courthouse,LRT,15127.0,Courthouse,424766.0,4512379.0,424766_4512379,1135.0,SLC_1_703_00_TX125091,COURTHOUSE STATION,40.758762,-111.891096
Courthouse,LRT,15127.0,Courthouse,424766.0,4512379.0,424766_4512379,1135.0,SLC_1_703_01_TX125085,COURTHOUSE STATION,40.759536,-111.891071
Crescent View,LRT,15046.0,Crescent View,425630.3295,4488641.506,425630_4488641,1930.0,SLC_1_701_01_TX198093,CRESCENT VIEW STATION,40.545343,-111.878751
Crescent View,LRT,15046.0,Crescent View,425630.3295,4488641.506,425630_4488641,1930.0,SLC_1_701_00_TX198094,CRESCENT VIEW STATION,40.544591,-111.878506
Daybreak Parkway,LRT,15011.0,Daybreak Parkway,414410.87395,4488306.61369,414195_4488576,2010.0,SLC_1_703_01_TX101715,DAYBREAK PARKWAY STATION,40.544377,-112.014304
Daybreak Parkway,LRT,15011.0,Daybreak Parkway,414410.87395,4488306.61369,414195_4488576,2010.0,SLC_1_703_00_TX101734,DAYBREAK PARKWAY STATION,40.543811,-112.013905
Decker Lake,LRT,15072.0,Decker Lake,419836.0,4506302.0,419836_4506302,1369.0,SLC_1_704_01_TX101743,DECKER LAKE STATION,40.704288,-111.948681
Decker Lake,LRT,15072.0,Decker Lake,419836.0,4506302.0,419836_4506302,1369.0,SLC_1_704_00_TX101742,DECKER LAKE STATION,40.705035,-111.948675
Draper,CRT,10008.0,Draper,423401.1517,4485422.991,423401_4485422,2117.0,SLC_1_750_01_FR198022,DRAPER STATION,40.515484,-111.904407
Draper,CRT,10008.0,Draper,423401.1517,4485422.991,423401_4485422,2117.0,SLC_1_750_00_FR198022,DRAPER STATION,40.515484,-111.904407
Draper Town Center,LRT,15041.0,Draper Town Center,427118.866,4486445.849,427118_4486445,2123.0,SLC_1_701_01_TX198097,DRAPER TOWN CENTER STATION,40.525675,-111.859915
Draper Town Center,LRT,15041.0,Draper Town Center,427118.866,4486445.849,427118_4486445,2123.0,SLC_1_701_00_TX198098,DRAPER TOWN CENTER STATION,40.525496,-111.858805
East Bay North,,,,,,,,SLC_1_830X_00_830280,EAST BAY NORTH STATION,40.21455,-111.656355
East Bay South,,,,,,,,SLC_1_830X_00_830281,East Bay South Station,40.208882,-111.655204
Fairmont,LRT,,,,,,,SLC_1_720_01_TX198146,FAIRMONT STATION,40.722757,-111.861675
Fairmont,LRT,,,,,,,SLC_1_720_00_TX198146,FAIRMONT STATION,40.722757,-111.861675
Fairpark,LRT,15110.0,Fairpark,422035.0,4513780.0,422035_4513780,1020.0,SLC_1_704_00_TX101996,FAIRPARK STATION,40.77148,-111.924632
Fairpark,LRT,15110.0,Fairpark,422035.0,4513780.0,422035_4513780,1020.0,SLC_1_704_01_TX101995,FAIRPARK STATION,40.771468,-111.923759
Farmington,CRT,10031.0,Farmington,423905.0949,4537796.948,423905_4537796,780.0,SLC_1_750_01_FR301084,FARMINGTON STATION,40.987266,-111.903667
Farmington,CRT,10031.0,Farmington,423905.0949,4537796.948,423905_4537796,780.0,SLC_1_750_00_FR301084,FARMINGTON STATION,40.987266,-111.903667
Fashion Place West,LRT,15068.0,Fashion Place West,424062.0,4498460.0,424062_4498460,1669.0,SLC_1_701_01_TX153041,FASHION PLACE WEST STATION,40.633823,-111.898319
Fashion Place West,LRT,15068.0,Fashion Place West,424062.0,4498460.0,424062_4498460,1669.0,SLC_1_703_01_TX153041,FASHION PLACE WEST STATION,40.633823,-111.898319
Fashion Place West,LRT,15068.0,Fashion Place West,424062.0,4498460.0,424062_4498460,1669.0,SLC_1_703_00_TX153045,FASHION PLACE WEST STATION,40.633116,-111.898355
Fashion Place West,LRT,15068.0,Fashion Place West,424062.0,4498460.0,424062_4498460,1669.0,SLC_1_701_00_TX153045,FASHION PLACE WEST STATION,40.633116,-111.898355
Fort Douglas,LRT,15148.0,Fort Douglas,429519.0,4512697.0,429519_4512697,1052.0,SLC_1_703_00_TX127251,FORT DOUGLAS STATION,40.764059,-111.836427
Fort Douglas,LRT,15148.0,Fort Douglas,429519.0,4512697.0,429519_4512697,1052.0,SLC_1_703_01_TX127247,FORT DOUGLAS STATION,40.764766,-111.836793
Gallivan Plaza,LRT,15133.0,Gallivan Plaza,424766.0,4512872.0,424766_4512872,1077.0,SLC_1_701_00_TX126073,GALLIVAN PLAZA STATION,40.763087,-111.891102
Gallivan Plaza,LRT,15133.0,Gallivan Plaza,424766.0,4512872.0,424766_4512872,1077.0,SLC_1_704_01_TX126071,GALLIVAN PLAZA STATION,40.763855,-111.891071
Gallivan Plaza,LRT,15133.0,Gallivan Plaza,424766.0,4512872.0,424766_4512872,1077.0,SLC_1_704_00_TX126073,GALLIVAN PLAZA STATION,40.763087,-111.891102
Gallivan Plaza,LRT,15133.0,Gallivan Plaza,424766.0,4512872.0,424766_4512872,1077.0,SLC_1_701_01_TX126071,GALLIVAN PLAZA STATION,40.763855,-111.891071
Historic Gardner,LRT,15052.0,Historic Gardner,421813.0,4495654.0,421813_4495654,1745.0,SLC_1_703_01_TX101728,HISTORIC GARDNER STATION,40.608219,-111.924005
Historic Gardner,LRT,15052.0,Historic Gardner,421813.0,4495654.0,421813_4495654,1745.0,SLC_1_703_00_TX101729,HISTORIC GARDNER STATION,40.607889,-111.924723
Historic Sandy,LRT,15056.0,Historic Sandy,425051.0,4493564.0,425051_4493564,1876.0,SLC_1_701_01_TX173021,HISTORIC SANDY STATION,40.589811,-111.885661
Historic Sandy,LRT,15056.0,Historic Sandy,425051.0,4493564.0,425051_4493564,1876.0,SLC_1_701_00_TX173022,HISTORIC SANDY STATION,40.589114,-111.885744
Jackson/Euclid,LRT,15122.0,Jackson/Euclid,422906.0,4513778.0,422906_4513778,1022.0,SLC_1_704_01_TX101993,JACKSON/EUCLID STATION,40.771502,-111.914486
Jackson/Euclid,LRT,15122.0,Jackson/Euclid,422906.0,4513778.0,422906_4513778,1022.0,SLC_1_704_00_TX101994,JACKSON/EUCLID STATION,40.771505,-111.915361
Joaquin,,,,,,,,SLC_1_830X_01_830272,JOAQUIN STATION,40.243018,-111.651313
Joaquin,,,,,,,,SLC_1_830X_00_830272,JOAQUIN STATION,40.243018,-111.651313
Jordan River Service Center,LRT,,,,,,,,,,
Jordan Valley,LRT,15036.0,Jordan Valley,417814.0,4494239.0,417814_4494239,1760.0,SLC_1_703_01_TX101722,JORDAN VALLEY STATION,40.594939,-111.971375
Jordan Valley,LRT,15036.0,Jordan Valley,417814.0,4494239.0,417814_4494239,1760.0,SLC_1_703_00_TX101723,JORDAN VALLEY STATION,40.594708,-111.972171
Kimballs Lane,LRT,15044.0,Kimballs Lane,426156.8878,4487686.105,426156_4487686,2107.0,SLC_1_701_01_TX198095,KIMBALLS LANE STATION,40.536528,-111.872436
Kimballs Lane,LRT,15044.0,Kimballs Lane,426156.8878,4487686.105,426156_4487686,2107.0,SLC_1_701_00_TX198096,KIMBALLS LANE STATION,40.535876,-111.871887
Lakeview,,,,,,,,SLC_1_830X_00_830263,LAKEVIEW STATION,40.273579,-111.70396
Lakeview,,,,,,,,SLC_1_830X_01_830263,LAKEVIEW STATION,40.273579,-111.70396
Layton,CRT,10035.0,Layton,418900.9502,4545515.674,418900_4545515,737.0,SLC_1_750_01_FR301082,LAYTON STATION,41.056903,-111.964955
Layton,CRT,10035.0,Layton,418900.9502,4545515.674,418900_4545515,737.0,SLC_1_750_00_FR301082,LAYTON STATION,41.056903,-111.964955
Lehi,CRT,50040.0,Lehi,423964.9278,4475360.891,423964_4475360,2605.0,SLC_1_750_00_FR801159,LEHI STATION,40.425196,-111.896354
Lehi,CRT,50040.0,Lehi,423964.9278,4475360.891,423964_4475360,2605.0,SLC_1_750_01_FR801159,LEHI STATION,40.425196,-111.896354
Library,LRT,15134.0,Library,425300.0,4512542.0,425300_4512542,1147.0,SLC_1_703_00_TX126074,LIBRARY STATION,40.760643,-111.884956
Library,LRT,15134.0,Library,425300.0,4512542.0,425300_4512542,1147.0,SLC_1_703_01_TX126076,LIBRARY STATION,40.760637,-111.883942
Main Street,,,,,,,,SLC_1_830X_01_830265,MAIN STREET STATION,40.273504,-111.694648
Main Street,,,,,,,,SLC_1_830X_00_830265,MAIN STREET STATION,40.273504,-111.694648
Meadowbrook,LRT,15080.0,Meadowbrook,424237.0,4504457.0,424237_4504457,1491.0,SLC_1_701_01_TX136035,MEADOWBROOK STATION,40.688026,-111.896725
Meadowbrook,LRT,15080.0,Meadowbrook,424237.0,4504457.0,424237_4504457,1491.0,SLC_1_701_00_TX136036,MEADOWBROOK STATION,40.687328,-111.896553
Meadowbrook,LRT,15080.0,Meadowbrook,424237.0,4504457.0,424237_4504457,1491.0,SLC_1_703_01_TX136035,MEADOWBROOK STATION,40.688026,-111.896725
Meadowbrook,LRT,15080.0,Meadowbrook,424237.0,4504457.0,424237_4504457,1491.0,SLC_1_703_00_TX136036,MEADOWBROOK STATION,40.687328,-111.896553
Midvale Center,LRT,15062.0,Midvale Center,424468.0,4495877.0,424468_4495877,1812.0,SLC_1_701_00_TX153049,MIDVALE CENTER STATION,40.609975,-111.892645
Midvale Center,LRT,15062.0,Midvale Center,424468.0,4495877.0,424468_4495877,1812.0,SLC_1_701_01_TX153048,MIDVALE CENTER STATION,40.610541,-111.893216
Midvale Fort Union,LRT,15063.0,Midvale Fort Union,424018.0,4496873.0,424018_4496873,1802.0,SLC_1_701_01_TX153046,MIDVALE FORT UNION STATION,40.619458,-111.898381
Midvale Fort Union,LRT,15063.0,Midvale Fort Union,424018.0,4496873.0,424018_4496873,1802.0,SLC_1_701_00_TX153047,MIDVALE FORT UNION STATION,40.618761,-111.898291
Midvale Rail Service Center,LRT,,,,,,,,,,
Millcreek,LRT,15086.0,Millcreek,424229.0,4505924.0,424229_4505924,1473.0,SLC_1_703_00_TX136034,MILLCREEK STATION,40.700365,-111.896952
Millcreek,LRT,15086.0,Millcreek,424229.0,4505924.0,424229_4505924,1473.0,SLC_1_701_00_TX136034,MILLCREEK STATION,40.700365,-111.896952
Millcreek,LRT,15086.0,Millcreek,424229.0,4505924.0,424229_4505924,1473.0,SLC_1_703_01_TX136033,MILLCREEK STATION,40.701067,-111.896939
Millcreek,LRT,15086.0,Millcreek,424229.0,4505924.0,424229_4505924,1473.0,SLC_1_701_01_TX136033,MILLCREEK STATION,40.701067,-111.896939
Murray Central,CRT,10016.0,Murray Central,424253.3785,4501376.055,424253_4501376,1633.0,SLC_1_701_01_TX153027,MURRAY CENTRAL STATION,40.660269,-111.895282
Murray Central,CRT,10016.0,Murray Central,424253.3785,4501376.055,424253_4501376,1633.0,SLC_1_703_01_TX153027,MURRAY CENTRAL STATION,40.660269,-111.895282
Murray Central,CRT,10016.0,Murray Central,424253.3785,4501376.055,424253_4501376,1633.0,SLC_1_701_00_TX153034,MURRAY CENTRAL STATION,40.659631,-111.895661
Murray Central,CRT,10016.0,Murray Central,424253.3785,4501376.055,424253_4501376,1633.0,SLC_1_703_00_TX153034,MURRAY CENTRAL STATION,40.659631,-111.895661
Murray Central,CRT,10016.0,Murray Central,424253.3785,4501376.055,424253_4501376,1633.0,SLC_1_750_00_FR198021,MURRAY CENTRAL STATION,40.659758,-111.896432
Murray Central,CRT,10016.0,Murray Central,424253.3785,4501376.055,424253_4501376,1633.0,SLC_1_750_01_FR198021,MURRAY CENTRAL STATION,40.659758,-111.896432
Murray Central,LRT,10016.0,Murray Central,424253.3785,4501376.055,424253_4501376,1633.0,SLC_1_701_01_TX153027,MURRAY CENTRAL STATION,40.660269,-111.895282
Murray Central,LRT,10016.0,Murray Central,424253.3785,4501376.055,424253_4501376,1633.0,SLC_1_703_01_TX153027,MURRAY CENTRAL STATION,40.660269,-111.895282
Murray Central,LRT,10016.0,Murray Central,424253.3785,4501376.055,424253_4501376,1633.0,SLC_1_701_00_TX153034,MURRAY CENTRAL STATION,40.659631,-111.895661
Murray Central,LRT,10016.0,Murray Central,424253.3785,4501376.055,424253_4501376,1633.0,SLC_1_703_00_TX153034,MURRAY CENTRAL STATION,40.659631,-111.895661
Murray Central,LRT,10016.0,Murray Central,424253.3785,4501376.055,424253_4501376,1633.0,SLC_1_750_00_FR198021,MURRAY CENTRAL STATION,40.659758,-111.896432
Murray Central,LRT,10016.0,Murray Central,424253.3785,4501376.055,424253_4501376,1633.0,SLC_1_750_01_FR198021,MURRAY CENTRAL STATION,40.659758,-111.896432
Murray North,LRT,15077.0,Murray North,424447.0,4503260.0,424447_4503260,1619.0,SLC_1_701_01_TX136045,MURRAY NORTH STATION,40.677155,-111.894053
Murray North,LRT,15077.0,Murray North,424447.0,4503260.0,424447_4503260,1619.0,SLC_1_703_01_TX136045,MURRAY NORTH STATION,40.677155,-111.894053
Murray North,LRT,15077.0,Murray North,424447.0,4503260.0,424447_4503260,1619.0,SLC_1_701_00_TX136048,MURRAY NORTH STATION,40.676454,-111.894079
Murray North,LRT,15077.0,Murray North,424447.0,4503260.0,424447_4503260,1619.0,SLC_1_703_00_TX136048,MURRAY NORTH STATION,40.676454,-111.894079
North Temple,CRT,10021.0,North Temple,423610.8845,4513767.165,423610_4513767,1027.0,SLC_1_750_00_FR198030,NORTH TEMPLE STATION,40.772532,-111.905124
North Temple,CRT,10021.0,North Temple,423610.8845,4513767.165,423610_4513767,1027.0,SLC_1_750_01_FR198030,NORTH TEMPLE STATION,40.772532,-111.905124
North Temple Bridge/Guadalupe,LRT,,,,,,,SLC_1_704_00_TX101992,NORTH TEMPLE BRIDGE/GUADALUPE,40.771578,-111.904318
North Temple Bridge/Guadalupe,LRT,,,,,,,SLC_1_704_01_TX101991,NORTH TEMPLE BRIDGE/GUADALUPE,40.771587,-111.905195
Ogden,CRT,10046.0,Ogden,417871.0,4564006.0,417871_4564006,368.0,SLC_1_750_01_FR601084,OGDEN STATION,41.224285,-111.980631
Ogden,CRT,10046.0,Ogden,417871.0,4564006.0,417871_4564006,368.0,SLC_1_750_00_FR601084,OGDEN STATION,41.224285,-111.980631
Old GreekTown,LRT,15119.0,Old GreekTown,423534.0,4513034.0,423534_4513034,1065.0,,,,
Old Greektown,,,,,,,,SLC_1_701_00_TX101406,OLD GREEKTOWN STATION,40.765022,-111.906778
Old Greektown,,,,,,,,SLC_1_701_01_TX101396,OLD GREEKTOWN STATION,40.765022,-111.905788
Orem Central,CRT,50029.0,Orem Central,438356.2813,4459074.432,438356_4459074,2882.0,SLC_1_750_00_FR801163,OREM CENTRAL STATION,40.28014,-111.725489
Orem Central,CRT,50029.0,Orem Central,438356.2813,4459074.432,438356_4459074,2882.0,SLC_1_750_01_FR801163,OREM CENTRAL STATION,40.28014,-111.725489
Orem Central (Bay A),,,,,,,,SLC_1_830X_00_830264,OREM CENTRAL STATION (BAY A),40.280776,-111.726227
Orem Central (Bay A),,,,,,,,SLC_1_830X_01_830264,OREM CENTRAL STATION (BAY A),40.280776,-111.726227
Planetarium,LRT,15126.0,Planetarium,423848.0,4513276.0,423848_4513276,1070.0,SLC_1_701_00_TX101395,PLANETARIUM STATION,40.766858,-111.902524
Planetarium,LRT,15126.0,Planetarium,423848.0,4513276.0,423848_4513276,1070.0,SLC_1_701_01_TX101405,PLANETARIUM STATION,40.766096,-111.902558
Power,LRT,15105.0,Power,421101.0,4513789.0,421101_4513789,1017.0,SLC_1_704_00_TX101998,POWER STATION,40.771509,-111.934373
Power,LRT,15105.0,Power,421101.0,4513789.0,421101_4513789,1017.0,SLC_1_704_01_TX101997,POWER STATION,40.771499,-111.933502
Provo Central,CRT,50024.0,Provo Central,443771.3641,4452975.47,443771_4452975,3001.0,SLC_1_750_00_FR801164,PROVO CENTRAL STATION,40.22544,-111.660632
Provo Central,CRT,50024.0,Provo Central,443771.3641,4452975.47,443771_4452975,3001.0,SLC_1_750_01_FR801164,PROVO CENTRAL STATION,40.22544,-111.660632
Provo Central (Bay H),,,,,,,,SLC_1_830X_01_830274,PROVO CENTRAL STATION (BAY H),40.225211,-111.66129
Provo Central (Bay H),,,,,,,,SLC_1_830X_00_830274,PROVO CENTRAL STATION (BAY H),40.225211,-111.66129
Provo Central (Bay J),,,,,,,,SLC_1_830X_00_830298,PROVO CENTRAL STATION (BAY J),40.225032,-111.660816
Redwood Junction,LRT,15078.0,Redwood Junction,420595.0,4507117.0,420595_4507117,1351.0,SLC_1_704_01_TX101741,REDWOOD JUNCTION STATION,40.711146,-111.940293
Redwood Junction,LRT,15078.0,Redwood Junction,420595.0,4507117.0,420595_4507117,1351.0,SLC_1_704_00_TX101740,REDWOOD JUNCTION STATION,40.711149,-111.939324
River Trail,LRT,15085.0,River Trail,421974.0,4508111.0,421974_4508111,1331.0,SLC_1_704_01_TX101739,RIVER TRAIL STATION,40.720605,-111.923811
River Trail,LRT,15085.0,River Trail,421974.0,4508111.0,421974_4508111,1331.0,SLC_1_704_00_TX101738,RIVER TRAIL STATION,40.719897,-111.923801
Roy,CRT,10042.0,Roy,412820.7567,4560266.171,412820_4560266,500.0,SLC_1_750_01_FR601085,ROY STATION,41.188757,-112.039378
Roy,CRT,10042.0,Roy,412820.7567,4560266.171,412820_4560266,500.0,SLC_1_750_00_FR601085,ROY STATION,41.188757,-112.039378
Salt Lake Central,CRT,10019.0,Salt Lake Central,423276.393,4512777.323,423276_4512777,1024.0,SLC_1_701_00_TX101404,SALT LAKE CENTRAL STATION,40.761721,-111.908301
Salt Lake Central,CRT,10019.0,Salt Lake Central,423276.393,4512777.323,423276_4512777,1024.0,SLC_1_750_00_FR101393,SALT LAKE CENTRAL STATION,40.76234,-111.909052
Salt Lake Central,CRT,10019.0,Salt Lake Central,423276.393,4512777.323,423276_4512777,1024.0,SLC_1_750_01_FR101393,SALT LAKE CENTRAL STATION,40.76234,-111.909052
Salt Lake Central,CRT,10019.0,Salt Lake Central,423276.393,4512777.323,423276_4512777,1024.0,SLC_1_701_01_TX101394,SALT LAKE CENTRAL STATION,40.762533,-111.908296
Salt Lake Central,LRT,10019.0,Salt Lake Central,423276.393,4512777.323,423276_4512777,1024.0,SLC_1_701_00_TX101404,SALT LAKE CENTRAL STATION,40.761721,-111.908301
Salt Lake Central,LRT,10019.0,Salt Lake Central,423276.393,4512777.323,423276_4512777,1024.0,SLC_1_750_00_FR101393,SALT LAKE CENTRAL STATION,40.76234,-111.909052
Salt Lake Central,LRT,10019.0,Salt Lake Central,423276.393,4512777.323,423276_4512777,1024.0,SLC_1_750_01_FR101393,SALT LAKE CENTRAL STATION,40.76234,-111.909052
Salt Lake Central,LRT,10019.0,Salt Lake Central,423276.393,4512777.323,423276_4512777,1024.0,SLC_1_701_01_TX101394,SALT LAKE CENTRAL STATION,40.762533,-111.908296
Sandy Civic Center,LRT,15051.0,Sandy Civic Center,425124.0,4491486.0,425124_4491486,1898.0,SLC_1_701_01_TX173026,SANDY CIVIC CENTER STATION,40.571127,-111.884681
Sandy Civic Center,LRT,15051.0,Sandy Civic Center,425124.0,4491486.0,425124_4491486,1898.0,SLC_1_701_00_TX173029,SANDY CIVIC CENTER STATION,40.570273,-111.884471
Sandy Expo,LRT,15053.0,Sandy Expo,424991.0,4492658.0,424991_4492658,1875.0,SLC_1_701_01_TX173129,SANDY EXPO STATION,40.581703,-111.886234
Sandy Expo,LRT,15053.0,Sandy Expo,424991.0,4492658.0,424991_4492658,1875.0,SLC_1_701_00_TX173130,SANDY EXPO STATION,40.581007,-111.886429
South Jordan,CRT,10010.0,South Jordan,423760.0,4490625.0,423760_4490625,1973.0,SLC_1_750_00_FR198023,SOUTH JORDAN STATION,40.563155,-111.900753
South Jordan,CRT,10010.0,South Jordan,423760.0,4490625.0,423760_4490625,1973.0,SLC_1_750_01_FR198023,SOUTH JORDAN STATION,40.563155,-111.900753
South Jordan Parkway,LRT,15014.0,South Jordan Parkway,413272.85,4490227.255,413272_4490227,1967.0,SLC_1_703_01_TX101716,SOUTH JORDAN PARKWAY STATION,40.559038,-112.024643
South Jordan Parkway,LRT,15014.0,South Jordan Parkway,413272.85,4490227.255,413272_4490227,1967.0,SLC_1_703_00_TX101717,SOUTH JORDAN PARKWAY STATION,40.558395,-112.024764
South Salt Lake City,LRT,,,,,,,SLC_1_720_00_TX198141,SOUTH SALT LAKE CITY STATION,40.722263,-111.890174
South Salt Lake City,LRT,,,,,,,SLC_1_720_01_TX198141,SOUTH SALT LAKE CITY STATION,40.722263,-111.890174
Stadium,LRT,15143.0,Stadium,428073.0,4512469.0,428073_4512469,1051.0,SLC_1_703_01_TX126109,STADIUM STATION,40.760126,-111.852171
Stadium,LRT,15143.0,Stadium,428073.0,4512469.0,428073_4512469,1051.0,SLC_1_703_00_TX126115,STADIUM STATION,40.759286,-111.852178
Sugarmont,LRT,,,,,,,SLC_1_720_01_TX198145,SUGARMONT STATION,40.722818,-111.865092
Sugarmont,LRT,,,,,,,SLC_1_720_00_TX198145,SUGARMONT STATION,40.722818,-111.865092
Temple Square,LRT,15135.0,Temple Square,424508.0,4513514.0,424508_4513514,1032.0,SLC_1_701_00_TX125084,TEMPLE SQUARE STATION,40.769335,-111.894303
Temple Square,LRT,15135.0,Temple Square,424508.0,4513514.0,424508_4513514,1032.0,SLC_1_704_01_TX125078,TEMPLE SQUARE STATION,40.769353,-111.895321
Temple Square,LRT,15135.0,Temple Square,424508.0,4513514.0,424508_4513514,1032.0,SLC_1_701_01_TX125078,TEMPLE SQUARE STATION,40.769353,-111.895321
Temple Square,LRT,15135.0,Temple Square,424508.0,4513514.0,424508_4513514,1032.0,SLC_1_704_00_TX125084,TEMPLE SQUARE STATION,40.769335,-111.894303
Towne Centre Blvd,,,,,,,,SLC_1_830X_00_830279,TOWNE CENTRE BLVD STATION,40.21685,-111.66097
Trolley,LRT,15138.0,Trolley,426277.0,4512521.0,426277_4512521,1158.0,SLC_1_703_01_TX126095,TROLLEY STATION,40.760664,-111.872527
Trolley,LRT,15138.0,Trolley,426277.0,4512521.0,426277_4512521,1158.0,SLC_1_703_00_TX126081,TROLLEY STATION,40.760672,-111.873552
University Medical Center,LRT,15149.0,University Medical Center,429459.0,4513376.0,429459_4513376,1007.0,SLC_1_703_00_TX127253,UNIVERSITY MEDICAL CENTER,40.769208,-111.838503
University Medical Center,LRT,15149.0,University Medical Center,429459.0,4513376.0,429459_4513376,1007.0,SLC_1_703_01_TX127252,UNIVERSITY MEDICAL CENTER,40.769871,-111.839201
University Place,,,,,,,,SLC_1_830X_00_830285,UNIVERSITY PLACE STATION,40.273239,-111.679555
University Place,,,,,,,,SLC_1_830X_01_830285,UNIVERSITY PLACE STATION,40.273239,-111.679555
University South Campus,LRT,15147.0,University South Campus,428961.0,4512319.0,428961_4512319,1051.0,SLC_1_703_00_TX127243,UNIVERSITY SOUTH CAMPUS STATION,40.760085,-111.839976
University South Campus,LRT,15147.0,University South Campus,428961.0,4512319.0,428961_4512319,1051.0,SLC_1_703_01_TX127236,UNIVERSITY SOUTH CAMPUS STATION,40.760509,-111.839146
Uvu,,,,,,,,SLC_1_830X_00_830262,UVU STATION,40.275484,-111.71182
Uvu,,,,,,,,SLC_1_830X_01_830261,UVU STATION,40.275846,-111.712436
West Jordan City Center,LRT,15050.0,West Jordan City Center,420804.0,4495330.0,420804_4495330,1744.0,SLC_1_703_01_TX101726,WEST JORDAN CITY CENTER STATION,40.605024,-111.936071
West Jordan City Center,LRT,15050.0,West Jordan City Center,420804.0,4495330.0,420804_4495330,1744.0,SLC_1_703_00_TX101727,WEST JORDAN CITY CENTER STATION,40.604797,-111.936857
West Valley Central,LRT,15069.0,West Valley Central,419002.0,4505156.0,419002_4505156,1383.0,SLC_1_704_01_TX101745,WEST VALLEY CENTRAL STATION,40.694361,-111.959834
West Valley Central,LRT,15069.0,West Valley Central,419002.0,4505156.0,419002_4505156,1383.0,SLC_1_704_00_TX101744,WEST VALLEY CENTRAL STATION,40.694366,-111.958917
Woods Cross,CRT,10025.0,Woods Cross,423899.0206,4525990.539,423899_4525990,863.0,SLC_1_750_00_FR301085,WOODS CROSS STATION,40.880457,-111.903151
Woods Cross,CRT,10025.0,Woods Cross,423899.0206,4525990.539,423899_4525990,863.0,SLC_1_750_01_FR301085,WOODS CROSS STATION,40.880457,-111.903151
,,15042.0,2700 W Sugar Factory Rd,419011.0,4494681.0,419011_4494681,1742.0,,,,
,,15024.0,4773 W Old Bingham Hwy,415054.0,4492802.0,415054_4492802,1773.0,,,,
,,10059.0,Brigham City North,414067.3335,4595900.764,414067_4595900,50.0,,,,
,,10058.0,Brigham City South,413030.478,4593315.52,413030_4593315,75.0,,,,
,,15097.0,Main St,424660.379,4508298.843,424660_4508298,1455.0,,,,
,,15106.0,McClelland St,426897.0502,4508342.621,426897_4508342,1272.0,,,,
,,50011.0,Payson,434066.7348,4431364.791,434066_4431364,3325.0,,,,
,,50013.0,Payson,435292.4063,4431700.19,435292_4431700,3341.0,,,,
,,50015.0,Payson,441171.4337,4438929.899,441171_4438929,3202.0,,,,
,,55000.0,Payson,434690.4442,4431444.464,434690_4431444,3342.0,,,,
,,50014.0,Payson North,438329.2654,4435398.644,438329_4435398,3334.0,,,,
,,10057.0,Perry,412073.8009,4590112.294,412073_4590112,99.0,,,,
,,10050.0,Pleasant View,415433.0081,4573378.475,415433_4573378,253.0,,,,
,,50016.0,SF,442158.4515,4440093.249,442158_4440093,3157.0,,,,
,,50019.0,Springville,445692.2074,4445639.023,445692_4445639,3079.0,,,,
,,50030.0,Vineyard,436331.2561,4462640.923,436331_4462640,2792.0,,,,
